[
  {
    "name": "STARLINK-34355",
    "noradId": "64306",
    "line1": "1 64306U 25123R   26166.55808019  .00011343  00000+0  95677-3 0  9997",
    "line2": "2 64306  70.0023 307.8771 0003379 269.3960  90.6812 14.98334356 56275"
  },
  {
    "name": "STARLINK-34380",
    "noradId": "64307",
    "line1": "1 64307U 25123S   26166.55388894  .00005191  00000+0  44239-3 0  9994",
    "line2": "2 64307  70.0019 307.8631 0003056 267.6574  92.4235 14.98342681 56279"
  },
  {
    "name": "STARLINK-34374",
    "noradId": "64308",
    "line1": "1 64308U 25123T   26166.60812225  .00002976  00000+0  25707-3 0  9998",
    "line2": "2 64308  70.0015 307.6492 0003064 269.9200  90.1608 14.98336746 56284"
  },
  {
    "name": "STARLINK-34370",
    "noradId": "64309",
    "line1": "1 64309U 25123U   26166.59977389  .00003321  00000+0  28592-3 0  9990",
    "line2": "2 64309  70.0014 307.6187 0003137 269.2917  90.7883 14.98336277 56284"
  },
  {
    "name": "STARLINK-34357",
    "noradId": "64310",
    "line1": "1 64310U 25123V   26166.55371800  .00003175  00000+0  27374-3 0  9998",
    "line2": "2 64310  70.0020 307.8675 0003244 269.1265  90.9522 14.98338344 56279"
  },
  {
    "name": "STARLINK-34368",
    "noradId": "64311",
    "line1": "1 64311U 25123W   26166.61213194  .00000994  00000+0  91063-4 0  9990",
    "line2": "2 64311  70.0021 307.6595 0002065 271.3686  88.7237 14.98340825 56288"
  },
  {
    "name": "STARLINK-34384",
    "noradId": "64312",
    "line1": "1 64312U 25123X   26166.60378493  .00002419  00000+0  21043-3 0  9998",
    "line2": "2 64312  70.0013 307.6387 0002857 268.7703  91.3128 14.98333626 56288"
  },
  {
    "name": "STARLINK-34358",
    "noradId": "64313",
    "line1": "1 64313U 25123Y   26166.59543875 -.00001037  00000+0 -79134-4 0  9997",
    "line2": "2 64313  70.0012 307.6094 0002451 263.6727  96.4153 14.98331738 56289"
  },
  {
    "name": "STARLINK-34354",
    "noradId": "64314",
    "line1": "1 64314U 25123Z   26166.58710863  .00007570  00000+0  64142-3 0  9998",
    "line2": "2 64314  70.0008 307.5784 0003335 269.3664  90.7113 14.98335327 56286"
  },
  {
    "name": "STARLINK-34387",
    "noradId": "64315",
    "line1": "1 64315U 25123AA  26166.57874135  .00005784  00000+0  49209-3 0  9993",
    "line2": "2 64315  70.0021 307.5514 0003082 265.7733  94.3074 14.98333467 56288"
  },
  {
    "name": "STARLINK-33590",
    "noradId": "64316",
    "line1": "1 64316U 25123AB  26166.58727366  .00008758  00000+0  74087-3 0  9994",
    "line2": "2 64316  70.0010 307.5717 0003207 270.0409  90.0382 14.98331540 56285"
  },
  {
    "name": "STARLINK-11736 [DTC]",
    "noradId": "64317",
    "line1": "1 64317U 25124A   26165.28870700  .00165367  00000+0  12625-2 0  9992",
    "line2": "2 64317  42.9984 167.2402 0001472 237.4495 122.6231 15.70921190 58026"
  },
  {
    "name": "STARLINK-11673 [DTC]",
    "noradId": "64318",
    "line1": "1 64318U 25124B   26166.03046826  .00025198  00000+0  19928-3 0  9992",
    "line2": "2 64318  42.9993 162.4708 0001221 250.0389 110.0347 15.70838944 58144"
  },
  {
    "name": "STARLINK-11671 [DTC]",
    "noradId": "64319",
    "line1": "1 64319U 25124C   26165.70193260  .00184641  00000+0  13958-2 0  9996",
    "line2": "2 64319  42.9986 164.3018 0003371 286.0199  74.0297 15.71089455 58091"
  },
  {
    "name": "STARLINK-11594 [DTC]",
    "noradId": "64320",
    "line1": "1 64320U 25124D   26165.48476374  .00222371  00000+0  16873-2 0  9995",
    "line2": "2 64320  42.9983 166.1334 0001337 271.9110  88.1604 15.70885194 58054"
  },
  {
    "name": "STARLINK-11596 [DTC]",
    "noradId": "64321",
    "line1": "1 64321U 25124E   26165.28339840  .00170347  00000+0  12959-2 0  9996",
    "line2": "2 64321  42.9952 167.1993 0001872 121.6584 238.4466 15.70989211 58021"
  },
  {
    "name": "STARLINK-11747 [DTC]",
    "noradId": "64322",
    "line1": "1 64322U 25124F   26165.71786759  .00171187  00000+0  13105-2 0  9997",
    "line2": "2 64322  43.0014 164.4275 0000393 243.4460 116.6367 15.70835700 58096"
  },
  {
    "name": "STARLINK-11728 [DTC]",
    "noradId": "64323",
    "line1": "1 64323U 25124G   26166.25825610  .00164841  00000+0  12589-2 0  9992",
    "line2": "2 64323  43.0011 160.7251 0001271 234.1393 125.9356 15.70914940 58180"
  },
  {
    "name": "STARLINK-11696 [DTC]",
    "noradId": "64324",
    "line1": "1 64324U 25124H   26166.26887576  .00163201  00000+0  12474-2 0  9995",
    "line2": "2 64324  42.9993 160.8079 0001723 255.8728 104.1948 15.70900101 58181"
  },
  {
    "name": "STARLINK-11698 [DTC]",
    "noradId": "64325",
    "line1": "1 64325U 25124J   26165.70284684  .00170145  00000+0  12997-2 0  9990",
    "line2": "2 64325  42.9973 164.3080 0001388 267.3378  92.7331 15.70891599 58095"
  },
  {
    "name": "STARLINK-11678 [DTC]",
    "noradId": "64326",
    "line1": "1 64326U 25124K   26166.58335648  .00662966  00000+0  27912-2 0  9995",
    "line2": "2 64326  42.9951 158.6616 0002604 136.6836 303.4627 15.82956483  5934"
  },
  {
    "name": "STARLINK-11674 [DTC]",
    "noradId": "64327",
    "line1": "1 64327U 25124L   26166.32714663  .00142708  00000+0  10941-2 0  9997",
    "line2": "2 64327  42.9995 160.3789 0002783 258.1907 101.8649 15.70894347 58198"
  },
  {
    "name": "STARLINK-11707 [DTC]",
    "noradId": "64328",
    "line1": "1 64328U 25124M   26165.26217549  .00097927  00000+0  75606-3 0  9993",
    "line2": "2 64328  42.9990 167.0247 0001763 266.1293  93.9373 15.70891480 58023"
  },
  {
    "name": "STARLINK-11734 [DTC]",
    "noradId": "64329",
    "line1": "1 64329U 25124N   26166.44369905  .00189424  00000+0  14347-2 0  9997",
    "line2": "2 64329  42.9991 159.5282 0001813 291.9320  68.1355 15.71031544 58216"
  },
  {
    "name": "STARLINK-34252",
    "noradId": "64330",
    "line1": "1 64330U 25124P   26163.66507866  .00020953  00000+0  76822-3 0  9998",
    "line2": "2 64330  43.0090 305.5237 0002995 283.3622  76.6896 15.27602351 56308"
  },
  {
    "name": "STARLINK-34050",
    "noradId": "64331",
    "line1": "1 64331U 25124Q   26166.07410127  .00016038  00000+0  59098-3 0  9995",
    "line2": "2 64331  43.0041 291.7753 0001480 272.0736  87.9946 15.27584110 57734"
  },
  {
    "name": "STARLINK-33782",
    "noradId": "64332",
    "line1": "1 64332U 25124R   26166.06252813  .00017737  00000+0  65189-3 0  9996",
    "line2": "2 64332  42.9932 291.6831 0000652  76.3798 283.7127 15.27611294 56674"
  },
  {
    "name": "STARLINK-34207",
    "noradId": "64333",
    "line1": "1 64333U 25124S   26166.60362054  .00014867  00000+0  54846-3 0  9995",
    "line2": "2 64333  43.0001 288.8688 0001683 245.0796 114.9881 15.27594126 56755"
  },
  {
    "name": "STARLINK-34260",
    "noradId": "64334",
    "line1": "1 64334U 25124T   26165.63054992  .00020016  00000+0  73537-3 0  9998",
    "line2": "2 64334  43.0017 294.4668 0002177 269.8025  90.2577 15.27558127 56605"
  },
  {
    "name": "STARLINK-33855",
    "noradId": "64335",
    "line1": "1 64335U 25124U   26166.05867526  .00017916  00000+0  65876-3 0  9993",
    "line2": "2 64335  42.9979 291.6526 0002258 267.9936  92.0657 15.27591391 56679"
  },
  {
    "name": "STARLINK-34223",
    "noradId": "64336",
    "line1": "1 64336U 25124V   26166.04759978  .00023956  00000+0  87718-3 0  9994",
    "line2": "2 64336  42.9983 288.1072 0001133 280.0230  80.0493 15.27582219 56715"
  },
  {
    "name": "STARLINK-34216",
    "noradId": "64337",
    "line1": "1 64337U 25124W   26166.04454437  .00014801  00000+0  54625-3 0  9997",
    "line2": "2 64337  42.9995 291.5503 0001895 272.7615  87.3019 15.27582123 56679"
  },
  {
    "name": "STARLINK-34218",
    "noradId": "64338",
    "line1": "1 64338U 25124X   26166.05916663  .00015223  00000+0  56159-3 0  9996",
    "line2": "2 64338  43.0027 288.2012 0002584 266.4549  93.6007 15.27577485 56715"
  },
  {
    "name": "STARLINK-34017",
    "noradId": "64339",
    "line1": "1 64339U 25124Y   26166.07023651  .00016180  00000+0  59576-3 0  9994",
    "line2": "2 64339  43.0075 291.7403 0002490 271.4180  88.6386 15.27604736 56674"
  },
  {
    "name": "STARLINK-33977",
    "noradId": "64344",
    "line1": "1 64344U 25126A   26166.36007673 -.00002287  00000+0 -18390-3 0  9994",
    "line2": "2 64344  70.0007 148.1328 0003467 263.5963  96.4801 14.98328076 56522"
  },
  {
    "name": "STARLINK-34426",
    "noradId": "64345",
    "line1": "1 64345U 25126B   26166.35574091  .00002447  00000+0  21274-3 0  9998",
    "line2": "2 64345  70.0000 148.1114 0003431 260.1106  99.9666 14.98334332 55317"
  },
  {
    "name": "STARLINK-34437",
    "noradId": "64346",
    "line1": "1 64346U 25126C   26166.38495695  .00001819  00000+0  16019-3 0  9997",
    "line2": "2 64346  70.0001 148.2154 0003808 264.2863  95.7862 14.98334711 55310"
  },
  {
    "name": "STARLINK-34407",
    "noradId": "64347",
    "line1": "1 64347U 25126D   26166.38929584  .00001787  00000+0  15751-3 0  9993",
    "line2": "2 64347  70.0002 148.2255 0004024 264.7251  95.3449 14.98334279 55317"
  },
  {
    "name": "STARLINK-34274",
    "noradId": "64348",
    "line1": "1 64348U 25126E   26166.33489489  .00001107  00000+0  10057-3 0  9994",
    "line2": "2 64348  70.0000 148.4429 0003901 263.8126  96.2589 14.98331751 55301"
  },
  {
    "name": "STARLINK-34301",
    "noradId": "64349",
    "line1": "1 64349U 25126F   26166.35991631  .00002038  00000+0  17853-3 0  9999",
    "line2": "2 64349  70.0004 148.1270 0003666 261.7499  98.3244 14.98331576 55312"
  },
  {
    "name": "STARLINK-34425",
    "noradId": "64350",
    "line1": "1 64350U 25126G   26166.38079297  .00003230  00000+0  27831-3 0  9991",
    "line2": "2 64350  70.0000 148.1973 0003733 269.4134  90.6598 14.98335343 55319"
  },
  {
    "name": "STARLINK-34389",
    "noradId": "64351",
    "line1": "1 64351U 25126H   26166.36842673  .00002561  00000+0  22235-3 0  9995",
    "line2": "2 64351  69.9999 148.1515 0003783 266.4939  93.5788 14.98335019 55314"
  }
]